STARLINK-5179           
1 54102U 22136BD  24182.53064994 -.00001840  00000+0 -97585-4 0  9995
2 54102  53.2166 224.6734 0001456  90.7327 269.3832 15.08831245 94282
STARLINK-5200           
1 54103U 22136BE  24182.23805950 -.00000595  00000+0 -19312-4 0  9996
2 54103  53.2141 205.7564 0001230  99.5741 260.5390 15.08834872 94522
STARLINK-5203           
1 54104U 22136BF  24182.21548912  .00000227  00000+0  32363-4 0  9998
2 54104  53.2133 190.6256 0001306  86.2496 273.8645 15.08834368 94731
STARLINK-5290           
1 54157U 22141A   24181.57478564 -.00000639  00000+0 -22066-4 0  9993
2 54157  53.2155 268.8971 0001202 105.8307 254.2818 15.08842857 92408
STARLINK-5297           
1 54158U 22141B   24182.45337440  .00000988  00000+0  80119-4 0  9997
2 54158  53.2172 265.1376 0001370  86.1001 274.0147 15.08843452 92536
STARLINK-5294           
1 54159U 22141C   24182.44969537  .00001706  00000+0  12523-3 0  9997
2 54159  53.2168 265.1204 0001502 105.6109 254.5049 15.08837661 92534
STARLINK-5233           
1 54160U 22141D   24181.83373886  .00000457  00000+0  46799-4 0  9992
2 54160  53.2156 222.7519 0001217  93.8765 266.2366 15.08838500 93075
STARLINK-5269           
1 54161U 22141E   24181.52329030 -.00000649  00000+0 -22702-4 0  9994
2 54161  53.2176 269.2785 0001350 109.9320 250.1818 15.08832236 92391
STARLINK-5273           
1 54162U 22141F   24181.97864816 -.00000657  00000+0 -23217-4 0  9991
2 54162  53.2177 267.1505 0001229  79.2178 280.8952 15.08835217 92464
STARLINK-5161           
1 54163U 22141G   24182.45429349  .00000094  00000+0  23986-4 0  9990
2 54163  53.2151 255.1680 0001009  72.4111 287.6991 15.08850989 92670
STARLINK-5278           
1 54164U 22141H   24181.59686335  .00003885  00000+0  26205-3 0  9992
2 54164  53.2165 259.0573 0001419  71.4274 288.6872 15.08842606 92546
STARLINK-5279           
1 54165U 22141J   24182.50487226 -.00000697  00000+0 -25677-4 0  9996
2 54165  53.2163 264.7504 0001312  96.1877 263.9265 15.08845688 92542
STARLINK-5280           
1 54166U 22141K   24182.45062162  .00003391  00000+0  23100-3 0  9999
2 54166  53.2158 255.1480 0001291  78.8938 281.2199 15.08841503 92670
STARLINK-5243           
1 54167U 22141L   24182.22149756  .00000544  00000+0  52271-4 0  9999
2 54167  53.2149 265.8247 0001793  84.3489 275.7708 15.08829560 92493
STARLINK-5245           
1 54168U 22141M   24182.44693423 -.00003035  00000+0 -17273-3 0  9991
2 54168  53.2158 255.1224 0001651  59.8215 300.2941 15.08831321 92679
STARLINK-5282           
1 54169U 22141N   24182.46158639 -.00002267  00000+0 -12442-3 0  9998
2 54169  53.2132 254.5153 0001341  74.4495 285.6645 15.08835896 92684
STARLINK-5155           
1 54170U 22141P   24182.44325057 -.00001155  00000+0 -54458-4 0  9997
2 54170  53.2168 255.1020 0001257  87.5504 272.5632 15.08841774 92668
STARLINK-5229           
1 54171U 22141Q   24182.42620067  .00000831  00000+0  70277-4 0  9990
2 54171  53.2166 259.9736 0001346  82.6934 277.4211 15.08840478 92606
STARLINK-5117           
1 54172U 22141R   24182.50212558 -.00001415  00000+0 -70833-4 0  9991
2 54172  53.2165 254.7561 0001252  81.5363 278.5771 15.08826605 92682
STARLINK-5242           
1 54173U 22141S   24182.20030986 -.00001733  00000+0 -90808-4 0  9999
2 54173  53.2155 255.7217 0001152  99.8873 260.2249 15.08840734 92641
STARLINK-5248           
1 54174U 22141T   24182.20723029 -.00000051  00000+0  14911-4 0  9999
2 54174  53.2158 200.8483 0001435  99.1053 261.0102 15.08833926 93405
STARLINK-5256           
1 54175U 22141U   24181.90964125 -.00000368  00000+0 -50463-5 0  9995
2 54175  53.2156 257.4577 0001380  82.7442 277.3707 15.08833644 92592
STARLINK-5154           
1 54176U 22141V   24181.49746542 -.00000172  00000+0  72993-5 0  9995
2 54176  53.2173 259.1429 0001432 103.8407 256.2745 15.08832263 92539
STARLINK-5186           
1 54177U 22141W   24181.90227322  .00003080  00000+0  21155-3 0  9994
2 54177  53.2172 257.4089 0001068  98.2433 261.8680 15.08827702 92591
STARLINK-5164           
1 54178U 22141X   24182.47632193  .00000713  00000+0  62892-4 0  9998
2 54178  53.2163 254.5770 0001379  84.6508 275.4642 15.08843045 92681
STARLINK-5122           
1 54179U 22141Y   24181.63362250  .00000674  00000+0  60449-4 0  9992
2 54179  53.2176 258.5739 0001293 102.5843 257.5293 15.08838416 92557
STARLINK-5228           
1 54180U 22141Z   24182.20768145 -.00002268  00000+0 -12443-3 0  9994
2 54180  53.2166 255.7654 0001385  92.6988 267.4163 15.08843146 92871
STARLINK-5227           
1 54181U 22141AA  24182.48369234 -.00000975  00000+0 -43156-4 0  9990
2 54181  53.2167 254.6405 0001426  93.6891 266.4264 15.08835116 92919
STARLINK-5231           
1 54182U 22141AB  24182.39443465 -.00000320  00000+0 -20243-5 0  9997
2 54182  53.2150 224.9026 0001458  92.4727 267.6432 15.08836520 93327
STARLINK-5239           
1 54183U 22141AC  24182.20399273 -.00000402  00000+0 -71860-5 0  9997
2 54183  53.2150 255.7434 0001368  94.5061 265.6087 15.08818358 92879
STARLINK-5162           
1 54184U 22141AD  24182.20872660 -.00001709  00000+0 -89323-4 0  9997
2 54184  53.2171 256.4619 0001123  82.8010 277.3109 15.08837132 92864
STARLINK-5235           
1 54185U 22141AE  24181.95008891 -.00000212  00000+0  47915-5 0  9995
2 54185  53.2171 256.9991 0001389  87.7363 272.3788 15.08834455 92832
STARLINK-5194           
1 54186U 22141AF  24182.45522773 -.00001379  00000+0 -68596-4 0  9995
2 54186  53.2164 245.1900 0001487 103.7960 256.3198 15.08837093 93048
STARLINK-5240           
1 54187U 22141AG  24182.22241820 -.00000781  00000+0 -31014-4 0  9993
2 54187  53.2164 255.8663 0001314 101.4317 258.6823 15.08835040 92873
STARLINK-5238           
1 54188U 22141AH  24182.18658329 -.00002259  00000+0 -12390-3 0  9992
2 54188  53.2165 246.3581 0001484  96.2680 263.8482 15.08841768 93000
STARLINK-5281           
1 54190U 22141AK  24182.18288916 -.00001469  00000+0 -74214-4 0  9992
2 54190  53.2116 246.3391 0001151  83.0639 277.0484 15.08837485 93007
STARLINK-4619           
1 54191U 22141AL  24182.19395117  .00000127  00000+0  26084-4 0  9996
2 54191  53.2172 246.4056 0001431 106.6409 253.4741 15.08838026 93003
STARLINK-5268           
1 54192U 22141AM  24182.47725141 -.00000662  00000+0 -23482-4 0  9997
2 54192  53.2159 244.6267 0001241 101.5467 258.5665 15.08836959 93059
STARLINK-5263           
1 54193U 22141AN  24182.44048984  .00002705  00000+0  18796-3 0  9997
2 54193  53.2150 245.1037 0001249  77.0100 283.1032 15.08837342 93049
STARLINK-5271           
1 54194U 22141AP  24182.16816227  .00000824  00000+0  69874-4 0  9994
2 54194  53.2148 246.2445 0001444  91.0798 269.0359 15.08830222 93009
STARLINK-5258           
1 54195U 22141AQ  24182.17920629  .00000696  00000+0  61811-4 0  9998
2 54195  53.2134 246.3140 0001629 129.2290 230.8846 15.08841640 93007
STARLINK-5237           
1 54196U 22141AR  24181.89582888 -.00000122  00000+0  10407-4 0  9998
2 54196  53.2159 247.3908 0001146  87.4963 272.6161 15.08834885 92965
STARLINK-5246           
1 54198U 22141AT  24182.42206676 -.00000526  00000+0 -14971-4 0  9997
2 54198  53.2163 244.9883 0001268  92.6903 267.4234 15.08837689 93042
STARLINK-5244           
1 54199U 22141AU  24182.16447345  .00001073  00000+0  85518-4 0  9990
2 54199  53.2166 246.2235 0001371 112.2978 247.8160 15.08833550 93007
STARLINK-5250           
1 54200U 22141AV  24182.48093096 -.00001559  00000+0 -79885-4 0  9999
2 54200  53.2152 244.6467 0001208 105.5695 254.5430 15.08830893 93051
STARLINK-5199           
1 54201U 22141AW  24182.43679496  .00001463  00000+0  10996-3 0  9998
2 54201  53.2146 245.0735 0001116  90.4316 269.6804 15.08844272 93045
STARLINK-5205           
1 54202U 22141AX  24182.47356813 -.00000445  00000+0 -98531-5 0  9992
2 54202  53.2176 244.6019 0001295  88.5744 271.5397 15.08833330 93053
STARLINK-5247           
1 54203U 22141AY  24182.41838034 -.00002807  00000+0 -15840-3 0  9991
2 54203  53.2158 244.9642 0001347 102.3243 257.7900 15.08828731 93040
STARLINK-5241           
1 54204U 22141AZ  24181.46890513  .00001993  00000+0  14330-3 0  9992
2 54204  53.2171 248.9896 0000571 100.9444 259.1612 15.08828662 92673
STARLINK-5249           
1 54205U 22141BA  24182.46988009 -.00000720  00000+0 -27159-4 0  9995
2 54205  53.2173 244.5782 0001244 101.1382 258.9750 15.08838442 93054
STARLINK-5264           
1 54206U 22141BB  24181.81991846 -.00000008  00000+0  17614-4 0  9990
2 54206  53.2158 212.6844 0001534  85.4769 274.6398 15.08835256 93444
STARLINK-5262           
1 54207U 22141BC  24182.20123335 -.00001327  00000+0 -65289-4 0  9992
2 54207  53.2160 245.7412 0001130  76.9758 283.1361 15.08839966 93011
STARLINK-5255           
1 54208U 22141BD  24181.84110811  .00000090  00000+0  23764-4 0  9993
2 54208  53.2154 222.7979 0001327  93.1945 266.9199 15.08839692 93075
STARLINK-5259           
1 54209U 22141BE  24181.87463857  .00001294  00000+0  99354-4 0  9993
2 54209  53.2159 237.2610 0001286  77.9063 282.2073 15.08840321 92879
STARLINK-5464           
1 54758U 22175A   24182.04812329  .00000324  00000+0  38444-4 0  9997
2 54758  53.2174 292.0127 0001312 110.2320 249.8814 15.08839577 83305
STARLINK-5215           
1 54759U 22175B   24182.44924514  .00003365  00000+0  22935-3 0  9997
2 54759  53.2176 290.2514 0001217 106.6291 253.4835 15.08845314 84646
STARLINK-5220           
1 54760U 22175C   24181.71830122 -.00000747  00000+0 -28866-4 0  9992
2 54760  53.2165 298.4898 0001057  84.2664 275.8449 15.08839409 86625
STARLINK-5202           
1 54761U 22175D   24182.05318514  .00001024  00000+0  82378-4 0  9992
2 54761  53.2160 297.0277 0001051 105.2371 254.8737 15.08840938 84512
STARLINK-5214           
1 54762U 22175E   24182.03845953  .00000322  00000+0  38307-4 0  9996
2 54762  53.2196 296.9423 0001415  68.8216 291.2927 15.08830985 84516
